NORAD_CAT_ID,OBJECT_NAME,OBJECT_TYPE,EPOCH,MEAN_MOTION,ECCENTRICITY,INCLINATION,RA_OF_ASC_NODE,ARG_OF_PERICENTER,MEAN_ANOMALY,BSTAR,MEAN_MOTION_DOT,MEAN_MOTION_DDOT,TLE_LINE0,TLE_LINE1,TLE_LINE2,SEMIMAJOR_AXIS,PERIOD,APOGEE,PERIGEE,DECAYED
53634.0,STARLINK-4592,PAYLOAD,2022-10-24 22:00:00,15.73126388,0.0003511,53.2141,1.9794,7.9632,337.0971,0.00061437,0.00086239,0.0,0 STARLINK-4592,1 53634U 22104AY  22297.91667824  .00086239  00000-0  61437-3 0  9997,2 53634  53.2141   1.9794 0003511   7.9632 337.0971 15.73126388  1304,6728.105,91.537,352.332,347.608,0.0
53634.0,STARLINK-4592,PAYLOAD,2022-10-25 14:00:01,15.73149285,0.0003795,53.2137,358.682,8.1769,154.7001,0.00056579,0.00079387,0.0,0 STARLINK-4592,1 53634U 22104AY  22298.58334491  .00079387  00000-0  56579-3 0  9999,2 53634  53.2137 358.6820 0003795   8.1769 154.7001 15.73149285  9238,6728.04,91.536,352.458,347.351,0.0
53634.0,STARLINK-4592,PAYLOAD,2022-10-25 22:00:01,15.73199393,0.0003594,53.2133,357.0306,8.6987,243.1439,0.00031398,0.00043683,0.0,0 STARLINK-4592,1 53634U 22104AY  22298.91668981  .00043683  00000-0  31398-3 0  9992,2 53634  53.2133 357.0306 0003594   8.6987 243.1439 15.73199393  1303,6727.897,91.533,352.18,347.344,0.0
53634.0,STARLINK-4592,PAYLOAD,2022-10-26 06:00:00,15.73269506,0.0003519,53.2134,355.3811,8.5369,332.1727,-0.00056601,-0.00079579,0.0,0 STARLINK-4592,1 53634U 22104AY  22299.25001157 -.00079579  00000-0 -56601-3 0  9995,2 53634  53.2134 355.3811 0003519   8.5369 332.1727 15.73269506  9330,6727.696999999999,91.529,351.92900000000014,347.195,0.0
53634.0,STARLINK-4592,PAYLOAD,2022-10-26 14:00:01,15.73179906,0.0003813999999999,53.2134,353.7332,6.6044,63.0902,0.0006915,0.00097504,0.0,0 STARLINK-4592,1 53634U 22104AY  22299.58334491  .00097504  00000-0  69150-3 0  9990,2 53634  53.2134 353.7332 0003814   6.6044  63.0902 15.73179906  1305,6727.9519999999975,91.534,352.384,347.251,0.0
53634.0,STARLINK-4592,PAYLOAD,2022-10-26 22:00:00,15.73252541,0.0003688999999999,53.2136,352.0815,6.0403,152.6031,-0.00041336,-0.0005838999999999,0.0,0 STARLINK-4592,1 53634U 22104AY  22299.91667824 -.00058390  00000-0 -41336-3 0  9994,2 53634  53.2136 352.0815 0003689   6.0403 152.6031 15.73252541  9446,6727.745,91.53,352.092,347.129,0.0
53634.0,STARLINK-4592,PAYLOAD,2022-10-27 14:00:01,15.73180575,0.0003194,53.2163,348.7816,339.3348,357.3042,-0.0055305,-0.00714051,0.0,0 STARLINK-4592,1 53634U 22104AY  22300.58335648 -.00714051  00000-0 -55305-2 0  9999,2 53634  53.2163 348.7816 0003194 339.3348 357.3042 15.73180575  9544,6727.951,91.534,351.964,347.667,0.0
53634.0,STARLINK-4592,PAYLOAD,2022-10-27 22:00:00,15.72678433,0.0004371,53.2175,347.1297,294.1462,131.0438,-0.0089282,-0.01099086,0.0,0 STARLINK-4592,1 53634U 22104AY  22300.91667824 -.01099086  00000-0 -89282-2 0  9996,2 53634  53.2175 347.1297 0004371 294.1462 131.0438 15.72678433  1302,6729.3830000000025,91.564,354.189,348.306,0.0
53634.0,STARLINK-4592,PAYLOAD,2022-10-28 00:00:02,15.72489594,0.0004567,53.2172,346.7173,288.1709,249.1261,-0.0092092,-0.01121947,0.0,0 STARLINK-4592,1 53634U 22104AY  22301.00002315 -.01121947  00000-0 -92092-2 0  9990,2 53634  53.2172 346.7173 0004567 288.1709 249.1261 15.72489594  9616,6729.920999999999,91.575,354.86,348.713,0.0
53634.0,STARLINK-4592,PAYLOAD,2022-10-28 14:00:01,15.71056649,0.0006786,53.2168,343.8393,271.2164,328.6992,-0.0096563999999999,-0.01109686,0.0,0 STARLINK-4592,1 53634U 22104AY  22301.58335648 -.01109686  00000-0 -96564-2 0  9995,2 53634  53.2168 343.8393 0006786 271.2164 328.6992 15.71056649  1308,6734.013000000001,91.658,360.448,351.30800000000005,0.0
53634.0,STARLINK-4592,PAYLOAD,2022-10-28 22:00:01,15.70236025,0.0005261,53.2174,342.1937,268.6656,57.1181,-0.0098672,-0.0109569,0.0,0 STARLINK-4592,1 53634U 22104AY  22301.91668981 -.01095690  00000-0 -98672-2 0  9992,2 53634  53.2174 342.1937 0005261 268.6656  57.1181 15.70236025  1305,6736.359,91.706,361.768,354.68,0.0
53634.0,STARLINK-4592,PAYLOAD,2022-10-29 12:00:00,15.68826677,0.0003198,53.2177,339.3245,271.9175,111.7046,-0.010716,-0.01117815,0.0,0 STARLINK-4592,1 53634U 22104AY  22302.50001157 -.01117815  00000-0 -10716-1 0  9990,2 53634  53.2177 339.3245 0003198 271.9175 111.7046 15.68826677  1300,6740.393,91.788,364.413,360.102,0.0
53634.0,STARLINK-4592,PAYLOAD,2022-10-29 22:00:01,15.67808842,0.0001307,53.2175,337.2753,50.924,166.5823,-0.011177,-0.01135208,0.0,0 STARLINK-4592,1 53634U 22104AY  22302.91668981 -.01135208  00000-0 -11177-1 0  9997,2 53634  53.2175 337.2753 0001307  50.9240 166.5823 15.67808842  1301,6743.31,91.848,366.056,364.293,0.0
53634.0,STARLINK-4592,PAYLOAD,2022-10-30 00:00:00,15.6760547,0.000118,53.2173,336.866,49.8095,278.2118,-0.0112819999999999,-0.01136183,0.0,0 STARLINK-4592,1 53634U 22104AY  22303.00001157 -.01136183  00000-0 -11282-1 0  9994,2 53634  53.2173 336.8660 0001180  49.8095 278.2118 15.67605470  9921,6743.893,91.86,366.554,364.962,0.0
53634.0,STARLINK-4592,PAYLOAD,2022-10-30 14:00:01,15.66088748,0.0001239,53.2166,334.0089,39.595,340.8155,-0.0104739999999999,-0.00989073,0.0,0 STARLINK-4592,1 53634U 22104AY  22303.58334491 -.00989073  00000-0 -10474-1 0  9992,2 53634  53.2166 334.0089 0001239  39.5950 340.8155 15.66088748  1302,6748.246,91.949,370.947,369.275,0.0
53634.0,STARLINK-4592,PAYLOAD,2022-10-30 22:00:01,15.65367351,0.000125,53.2173,332.3751,53.9922,46.4408,-0.012332,-0.0113409,0.0,0 STARLINK-4592,1 53634U 22104AY  22303.91668981 -.01134090  00000-0 -12332-1 0  9990,2 53634  53.2173 332.3751 0001250  53.9922  46.4408 15.65367351  1308,6750.319,91.991,373.028,371.341,0.0
53634.0,STARLINK-4592,PAYLOAD,2022-10-31 14:00:01,15.63750431,0.0001286,53.2166,329.1203,55.9807,201.4422,-0.013323,-0.01147116,0.0,0 STARLINK-4592,1 53634U 22104AY  22304.58334491 -.01147116  00000-0 -13323-1 0  9994,2 53634  53.2166 329.1203 0001286  55.9807 201.4422 15.63750431  1301,6754.972,92.086,377.706,375.968,0.0
53634.0,STARLINK-4592,PAYLOAD,2022-10-31 22:00:01,15.62925618,0.0001111,53.2174,327.4924,56.4606,278.0987,-0.013576,-0.01132745,0.0,0 STARLINK-4592,1 53634U 22104AY  22304.91668981 -.01132745  00000-0 -13576-1 0  9997,2 53634  53.2174 327.4924 0001111  56.4606 278.0987 15.62925618 10228,6757.348000000001,92.135,379.964,378.463,0.0
53634.0,STARLINK-4592,PAYLOAD,2022-11-01 14:00:01,15.6130332,0.0001398,53.2167,324.2495,47.5122,78.1731,-0.01456,-0.01139396,0.0,0 STARLINK-4592,1 53634U 22104AY  22305.58334491 -.01139396  00000-0 -14560-1 0  9990,2 53634  53.2167 324.2495 0001398  47.5122  78.1731 15.61303320 10336,6762.028,92.231,384.839,382.948,0.0
53634.0,STARLINK-4592,PAYLOAD,2022-11-01 22:00:00,15.60484792,0.0001322,53.2172,322.6277,59.6474,140.1718,-0.014924,-0.01132087,0.0,0 STARLINK-4592,1 53634U 22104AY  22305.91667824 -.01132087  00000-0 -14924-1 0  9990,2 53634  53.2172 322.6277 0001322  59.6474 140.1718 15.60484792  1307,6764.393,92.279,387.152,385.36300000000006,0.0
53634.0,STARLINK-4592,PAYLOAD,2022-11-02 14:00:01,15.58859559,0.0001187,53.2172,319.3964,50.0792,295.0652,-0.01592,-0.01134238,0.0,0 STARLINK-4592,1 53634U 22104AY  22306.58334491 -.01134238  00000-0 -15920-1 0  9992,2 53634  53.2172 319.3964 0001187  50.0792 295.0652 15.58859559 10480,6769.094,92.375,391.762,390.155,0.0
53634.0,STARLINK-4592,PAYLOAD,2022-11-02 22:00:00,15.580434599999998,0.000121,53.2174,317.7806,52.465,3.879,-0.016386,-0.01131978,0.0,0 STARLINK-4592,1 53634U 22104AY  22306.91667824 -.01131978  00000-0 -16386-1 0  9993,2 53634  53.2174 317.7806 0001210  52.4650   3.8790 15.58043460  1300,6771.456999999999,92.424,394.141,392.503,0.0
53634.0,STARLINK-4592,PAYLOAD,2022-11-03 06:00:02,15.57242165,0.0001298,53.2169,316.1704,64.1583,62.4627,-0.017155,-0.01148043,0.0,0 STARLINK-4592,1 53634U 22104AY  22307.25002315 -.01148043  00000-0 -17155-1 0  9995,2 53634  53.2169 316.1704 0001298  64.1583  62.4627 15.57242165 10598,6773.78,92.471,396.524,394.766,0.0
53634.0,STARLINK-4592,PAYLOAD,2022-11-03 14:00:01,15.5642668,0.0001578,53.2165,314.5613,47.3424,148.4557,-0.01765,-0.01145855,0.0,0 STARLINK-4592,1 53634U 22104AY  22307.58334491 -.01145855  00000-0 -17650-1 0  9992,2 53634  53.2165 314.5613 0001578  47.3424 148.4557 15.56426680  1304,6776.146,92.52,399.08,396.941,0.0
53634.0,STARLINK-4592,PAYLOAD,2022-11-04 00:00:00,15.55398098,0.0001317,53.2176,312.5498,45.5855,325.3953,-0.018045,-0.01129064,0.0,0 STARLINK-4592,1 53634U 22104AY  22308.00001157 -.01129064  00000-0 -18045-1 0  9993,2 53634  53.2176 312.5498 0001317  45.5855 325.3953 15.55398098  1300,6779.1330000000025,92.581,401.89,400.105,0.0
53634.0,STARLINK-4592,PAYLOAD,2022-11-04 06:00:00,15.54789176,0.0001366,53.2175,311.3472,45.099,286.2529,-0.018494,-0.01131127,0.0,0 STARLINK-4592,1 53634U 22104AY  22308.25001157 -.01131127  00000-0 -18494-1 0  9991,2 53634  53.2175 311.3472 0001366  45.0990 286.2529 15.54789176 10749,6780.903,92.617,403.694,401.841,0.0
53634.0,STARLINK-4592,PAYLOAD,2022-11-04 14:00:01,15.53975826,0.0001444,53.2172,309.7434,38.9559,358.7036,-0.019057,-0.0113115,0.0,0 STARLINK-4592,1 53634U 22104AY  22308.58334491 -.01131150  00000-0 -19057-1 0  9999,2 53634  53.2172 309.7434 0001444  38.9559 358.7036 15.53975826  1302,6783.268,92.666,406.11300000000006,404.154,0.0
53634.0,STARLINK-4592,PAYLOAD,2022-11-04 22:00:01,15.53162479,0.0001459,53.2168,308.1401,46.0847,56.9704,-0.019666,-0.01132845,0.0,0 STARLINK-4592,1 53634U 22104AY  22308.91668981 -.01132845  00000-0 -19666-1 0  9998,2 53634  53.2168 308.1401 0001459  46.0847  56.9704 15.53162479 10851,6785.636,92.714,408.491,406.511,0.0
53634.0,STARLINK-4592,PAYLOAD,2022-11-05 00:00:00,15.52957304,0.0001472,53.2173,307.7397,55.3652,153.8049,-0.019725,-0.01128257,0.0,0 STARLINK-4592,1 53634U 22104AY  22309.00001157 -.01128257  00000-0 -19725-1 0  9993,2 53634  53.2173 307.7397 0001472  55.3652 153.8049 15.52957304  1305,6786.234,92.726,409.098,407.1,0.0
